NORAD_CAT_ID,OBJECT_NAME,OBJECT_TYPE,EPOCH,MEAN_MOTION,ECCENTRICITY,INCLINATION,RA_OF_ASC_NODE,ARG_OF_PERICENTER,MEAN_ANOMALY,BSTAR,MEAN_MOTION_DOT,MEAN_MOTION_DDOT,TLE_LINE0,TLE_LINE1,TLE_LINE2,SEMIMAJOR_AXIS,PERIOD,APOGEE,PERIGEE,DECAYED
53636.0,STARLINK-4586,PAYLOAD,2022-11-07 22:00:00,15.49833772,0.0001426,53.213,293.7804,66.0663,236.8289,0.0010023,0.00056745,0.0,0 STARLINK-4586,1 53636U 22104BA  22311.91667824  .00056745  00000-0  10023-2 0  9999,2 53636  53.2130 293.7804 0001426  66.0663 236.8289 15.49833772  1303,6795.349,92.913,418.1830000000001,416.245,0.0
53636.0,STARLINK-4586,PAYLOAD,2022-11-08 14:00:01,15.49917618,0.0001491,53.2127,290.5952,59.9443,4.7609,-7.4479e-05,-4.681e-05,0.0,0 STARLINK-4586,1 53636U 22104BA  22312.58334491 -.00004681  00000-0 -74479-4 0  9995,2 53636  53.2127 290.5952 0001491  59.9443   4.7609 15.49917618  1307,6795.104,92.908,417.982,415.956,0.0
53636.0,STARLINK-4586,PAYLOAD,2022-11-08 22:00:00,15.49912833,0.0001385999999999,53.2131,289.0007,63.664,61.9644,-0.00042356,-0.0002444,0.0,0 STARLINK-4586,1 53636U 22104BA  22312.91667824 -.00024440  00000-0 -42356-3 0  9994,2 53636  53.2131 289.0007 0001386  63.6640  61.9644 15.49912833 11477,6795.118,92.908,417.925,416.041,0.0
53636.0,STARLINK-4586,PAYLOAD,2022-11-09 14:00:01,15.4996564,0.0001242,53.2146,285.8154,53.8711,193.5747,-0.0034084,-0.00189824,0.0,0 STARLINK-4586,1 53636U 22104BA  22313.58334491 -.00189824  00000-0 -34084-2 0  9995,2 53636  53.2146 285.8154 0001242  53.8711 193.5747 15.49965640  1302,6794.9630000000025,92.905,417.672,415.985,0.0
53636.0,STARLINK-4586,PAYLOAD,2022-11-09 22:00:01,15.49818799,0.0001255,53.2161,284.2199,51.8908,256.5683,-0.012303,-0.0064264,0.0,0 STARLINK-4586,1 53636U 22104BA  22313.91668981 -.00642640  00000-0 -12303-1 0  9995,2 53636  53.2161 284.2199 0001255  51.8908 256.5683 15.49818799 11628,6795.393,92.914,418.111,416.405,0.0
53636.0,STARLINK-4586,PAYLOAD,2022-11-10 06:00:00,15.49272501,0.000146,53.2171,282.6296,45.9986,323.025,-0.01859,-0.00947316,0.0,0 STARLINK-4586,1 53636U 22104BA  22314.25001157 -.00947316  00000-0 -18590-1 0  9991,2 53636  53.2171 282.6296 0001460  45.9986 323.0250 15.49272501 11677,6796.99,92.947,419.847,417.86300000000006,0.0
53636.0,STARLINK-4586,PAYLOAD,2022-11-10 14:00:01,15.48617526,0.0001406999999999,53.2169,281.0378,49.3863,19.4018,-0.023786,-0.01178326,0.0,0 STARLINK-4586,1 53636U 22104BA  22314.58334491 -.01178326  00000-0 -23786-1 0  9998,2 53636  53.2169 281.0378 0001407  49.3863  19.4018 15.48617526  1307,6798.906,92.986,421.728,419.815,0.0
53636.0,STARLINK-4586,PAYLOAD,2022-11-10 16:00:00,15.4838756,0.0001455,53.2174,280.6397,56.9221,116.6865,-0.02315,-0.01140969,0.0,0 STARLINK-4586,1 53636U 22104BA  22314.66667824 -.01140969  00000-0 -23150-1 0  9993,2 53636  53.2174 280.6397 0001455  56.9221 116.6865 15.48387560 11745,6799.58,93.0,422.434,420.455,0.0
53636.0,STARLINK-4586,PAYLOAD,2022-11-10 22:00:00,15.47797169,0.0001567,53.2168,279.4478,50.8864,76.7675,-0.02421,-0.01166375,0.0,0 STARLINK-4586,1 53636U 22104BA  22314.91667824 -.01166375  00000-0 -24210-1 0  9998,2 53636  53.2168 279.4478 0001567  50.8864  76.7675 15.47797169  1309,6801.309,93.035,424.239,422.108,0.0
53636.0,STARLINK-4586,PAYLOAD,2022-11-11 14:00:01,15.46159007,0.0001372,53.2167,276.2765,52.3159,190.138,-0.025346,-0.01154362,0.0,0 STARLINK-4586,1 53636U 22104BA  22315.58334491 -.01154362  00000-0 -25346-1 0  9997,2 53636  53.2167 276.2765 0001372  52.3159 190.1380 15.46159007 11880,6806.111999999999,93.134,428.91,427.043,0.0
53636.0,STARLINK-4586,PAYLOAD,2022-11-11 22:00:00,15.45353678,0.0001386999999999,53.2168,274.6926,49.099,249.2803,-0.026278,-0.01163137,0.0,0 STARLINK-4586,1 53636U 22104BA  22315.91667824 -.01163137  00000-0 -26278-1 0  9998,2 53636  53.2168 274.6926 0001387  49.0990 249.2803 15.45353678  1305,6808.476,93.183,431.285,429.397,0.0
53636.0,STARLINK-4586,PAYLOAD,2022-11-12 14:00:01,15.43711362,0.0001291,53.2171,271.5327,51.1312,356.1827,-0.027313,-0.01144483,0.0,0 STARLINK-4586,1 53636U 22104BA  22316.58334491 -.01144483  00000-0 -27313-1 0  9997,2 53636  53.2171 271.5327 0001291  51.1312 356.1827 15.43711362 12049,6813.304,93.282,436.049,434.29,0.0
53636.0,STARLINK-4586,PAYLOAD,2022-11-12 22:00:00,15.42931427,0.0001327,53.2165,269.9547,51.6175,48.6756,-0.029224,-0.01188314,0.0,0 STARLINK-4586,1 53636U 22104BA  22316.91667824 -.01188314  00000-0 -29224-1 0  9997,2 53636  53.2165 269.9547 0001327  51.6175  48.6756 15.42931427  1305,6815.6,93.329,438.369,436.561,0.0
53636.0,STARLINK-4586,PAYLOAD,2022-11-13 14:00:01,15.41321393,0.0001583,53.2168,266.8067,53.0667,150.2767,-0.031512,-0.01211448,0.0,0 STARLINK-4586,1 53636U 22104BA  22317.58334491 -.01211448  00000-0 -31512-1 0  9990,2 53636  53.2168 266.8067 0001583  53.0667 150.2767 15.41321393  1303,6820.345,93.426,443.29,441.131,0.0
53636.0,STARLINK-4586,PAYLOAD,2022-11-13 22:00:00,15.40473144,0.0001395,53.2166,265.2344,61.2556,192.1687,-0.031058,-0.01164973,0.0,0 STARLINK-4586,1 53636U 22104BA  22317.91667824 -.01164973  00000-0 -31058-1 0  9991,2 53636  53.2166 265.2344 0001395  61.2556 192.1687 15.40473144  1308,6822.849,93.478,445.666,443.762,0.0
53636.0,STARLINK-4586,PAYLOAD,2022-11-14 14:00:01,15.38828772,0.0001276,53.2175,262.0975,51.4054,299.2201,-0.032133,-0.01143357,0.0,0 STARLINK-4586,1 53636U 22104BA  22318.58334491 -.01143357  00000-0 -32133-1 0  9994,2 53636  53.2175 262.0975 0001276  51.4054 299.2201 15.38828772 12340,6827.709,93.578,450.445,448.702,0.0
53636.0,STARLINK-4586,PAYLOAD,2022-11-14 22:00:00,15.38034571,0.00013,53.2166,260.5315,53.1019,344.6428,-0.03377,-0.0116826,0.0,0 STARLINK-4586,1 53636U 22104BA  22318.91667824 -.01168260  00000-0 -33770-1 0  9998,2 53636  53.2166 260.5315 0001300  53.1019 344.6428 15.38034571  1305,6830.059,93.626,452.812,451.036,0.0
53636.0,STARLINK-4586,PAYLOAD,2022-11-15 14:00:01,15.364012300000002,0.0001515,53.2171,257.4064,54.2386,74.8346,-0.035361,-0.01160635,0.0,0 STARLINK-4586,1 53636U 22104BA  22319.58334491 -.01160635  00000-0 -35361-1 0  9999,2 53636  53.2171 257.4064 0001515  54.2386  74.8346 15.36401230  1303,6834.899,93.726,457.799,455.728,0.0
53636.0,STARLINK-4586,PAYLOAD,2022-11-15 16:00:00,15.36179417,0.0001416,53.2172,257.0156,61.764,168.4589,-0.034754,-0.01134916,0.0,0 STARLINK-4586,1 53636U 22104BA  22319.66667824 -.01134916  00000-0 -34754-1 0  9995,2 53636  53.2172 257.0156 0001416  61.7640 168.4589 15.36179417 12511,6835.557,93.739,458.389,456.454,0.0
53636.0,STARLINK-4586,PAYLOAD,2022-11-15 22:00:00,15.35571061,0.0001513,53.2177,255.8463,58.1228,115.1541,-0.0355399999999999,-0.01137748,0.0,0 STARLINK-4586,1 53636U 22104BA  22319.91667824 -.01137748  00000-0 -35540-1 0  9993,2 53636  53.2177 255.8463 0001513  58.1228 115.1541 15.35571061  1305,6837.361999999999,93.776,460.261,458.192,0.0
53636.0,STARLINK-4586,PAYLOAD,2022-11-16 14:00:01,15.33944383,0.0001364,53.2176,252.732,61.9209,196.8779,-0.037481,-0.01138732,0.0,0 STARLINK-4586,1 53636U 22104BA  22320.58335648 -.01138732  00000-0 -37481-1 0  9994,2 53636  53.2176 252.7320 0001364  61.9209 196.8779 15.33944383 12655,6842.195,93.876,464.99300000000005,463.126,0.0
53636.0,STARLINK-4586,PAYLOAD,2022-11-16 22:00:08,15.33130417,0.0001322,53.2177,251.1778,61.3518,239.0925,-0.03845,-0.01138318,0.0,0 STARLINK-4586,1 53636U 22104BA  22320.91675926 -.01138318  00000-0 -38450-1 0  9994,2 53636  53.2177 251.1778 0001322  61.3518 239.0925 15.33130417  1305,6844.616,93.925,467.386,465.576,0.0
53636.0,STARLINK-4586,PAYLOAD,2022-11-17 14:00:01,15.31521462,0.0001409,53.2168,248.0755,48.6093,330.9701,-0.04145,-0.01163857,0.0,0 STARLINK-4586,1 53636U 22104BA  22321.58334491 -.01163857  00000-0 -41450-1 0  9997,2 53636  53.2168 248.0755 0001409  48.6093 330.9701 15.31521462 12810,6849.409000000002,94.024,472.239,470.309,0.0
53636.0,STARLINK-4586,PAYLOAD,2022-11-17 22:00:00,15.30714744,0.0001373,53.2167,246.527,57.9344,359.9699,-0.042865,-0.01172649,0.0,0 STARLINK-4586,1 53636U 22104BA  22321.91667824 -.01172649  00000-0 -42865-1 0  9993,2 53636  53.2167 246.5270 0001373  57.9344 359.9699 15.30714744  1301,6851.816,94.074,474.621,472.74,0.0
53636.0,STARLINK-4586,PAYLOAD,2022-11-18 14:00:01,15.290837699999996,0.0001629999999999,53.2168,243.4361,50.7715,80.8578,-0.044829,-0.01166364,0.0,0 STARLINK-4586,1 53636U 22104BA  22322.58334491 -.01166364  00000-0 -44829-1 0  9997,2 53636  53.2168 243.4361 0001630  50.7715  80.8578 15.29083770  1300,6856.687,94.174,479.67,477.434,0.0
53636.0,STARLINK-4586,PAYLOAD,2022-11-18 22:00:00,15.28311086,0.0001324,53.2167,241.8935,65.3347,101.6677,-0.048188,-0.01236037,0.0,0 STARLINK-4586,1 53636U 22104BA  22322.91667824 -.01236037  00000-0 -48188-1 0  9990,2 53636  53.2167 241.8935 0001324  65.3347 101.6677 15.28311086  1306,6858.998000000001,94.222,481.771,479.955,0.0
53636.0,STARLINK-4586,PAYLOAD,2022-11-19 14:00:01,15.26629996,0.0001411,53.2169,238.8137,57.7451,177.1431,-0.047586,-0.01165195,0.0,0 STARLINK-4586,1 53636U 22104BA  22323.58334491 -.01165195  00000-0 -47586-1 0  9992,2 53636  53.2169 238.8137 0001411  57.7451 177.1431 15.26629996  1302,6864.031999999997,94.325,486.866,484.929,0.0
53636.0,STARLINK-4586,PAYLOAD,2022-11-19 16:00:00,15.26412497,0.0001286,53.2171,238.4291,54.3846,278.7176,-0.047045,-0.01130903,0.0,0 STARLINK-4586,1 53636U 22104BA  22323.66667824 -.01130903  00000-0 -47045-1 0  9999,2 53636  53.2171 238.4291 0001286  54.3846 278.7176 15.26412497 13126,6864.684,94.339,487.432,485.666,0.0
53636.0,STARLINK-4586,PAYLOAD,2022-11-19 22:00:00,15.25851522,0.000128,53.2167,237.2772,69.3191,198.0117,-0.050841,-0.01211733,0.0,0 STARLINK-4586,1 53636U 22104BA  22323.91667824 -.01211733  00000-0 -50841-1 0  9996,2 53636  53.2167 237.2772 0001280  69.3191 198.0117 15.25851522  1306,6866.3669999999975,94.374,489.111,487.353,0.0
